NORAD_CAT_ID,OBJECT_NAME,OBJECT_TYPE,EPOCH,MEAN_MOTION,ECCENTRICITY,INCLINATION,RA_OF_ASC_NODE,ARG_OF_PERICENTER,MEAN_ANOMALY,BSTAR,MEAN_MOTION_DOT,MEAN_MOTION_DDOT,TLE_LINE0,TLE_LINE1,TLE_LINE2,SEMIMAJOR_AXIS,PERIOD,APOGEE,PERIGEE,DECAYED
51876.0,STARLINK-3583,PAYLOAD,2022-06-15 22:00:00,15.08846732,0.0001883,53.2175,6.8326,48.7072,313.582,-1.5297e-05,-5.32e-06,0.0,0 STARLINK-3583,1 51876U 22022AA  22166.91667824 -.00000532  00000-0 -15297-4 0  9995,2 51876  53.2175   6.8326 0001883  48.7072 313.5820 15.08846732  1305,6917.86,95.437,541.0269999999998,538.422,0.0
51876.0,STARLINK-3583,PAYLOAD,2022-06-16 02:00:01,15.08854881,0.0001844,53.2171,6.084,46.8705,141.2181,-0.0014411,-0.0002316,0.0,0 STARLINK-3583,1 51876U 22022AA  22167.08334491 -.00023160  00000-0 -14411-2 0  9992,2 51876  53.2171   6.0840 0001844  46.8705 141.2181 15.08854881  1303,6917.835,95.437,540.976,538.424,0.0
51876.0,STARLINK-3583,PAYLOAD,2022-06-19 14:00:01,15.08849108,0.0001668,53.2171,350.3711,53.2589,76.4876,-0.00037176,-6.201e-05,0.0,0 STARLINK-3583,1 51876U 22022AA  22170.58334491 -.00006201  00000-0 -37176-3 0  9992,2 51876  53.2171 350.3711 0001668  53.2589  76.4876 15.08849108  1307,6917.853,95.437,540.871,538.564,0.0
51876.0,STARLINK-3583,PAYLOAD,2022-06-19 20:00:01,15.08844494,0.0001807,53.217,349.2502,47.5359,0.9165,0.00013433,1.851e-05,0.0,0 STARLINK-3583,1 51876U 22022AA  22170.83334491  .00001851  00000-0  13433-3 0  9994,2 51876  53.2170 349.2502 0001807  47.5359   0.9165 15.08844494 17973,6917.8669999999975,95.437,540.982,538.482,0.0
51876.0,STARLINK-3583,PAYLOAD,2022-06-19 22:00:00,15.08835092,0.0001791,53.217,348.8763,45.2763,96.0801,0.0013347,0.00021015,0.0,0 STARLINK-3583,1 51876U 22022AA  22170.91667824  .00021015  00000-0  13347-2 0  9999,2 51876  53.2170 348.8763 0001791  45.2763  96.0801 15.08835092  1300,6917.895,95.438,540.999,538.521,0.0
51876.0,STARLINK-3583,PAYLOAD,2022-06-20 14:00:01,15.08848963,0.0001657,53.2173,345.8832,50.2749,114.2701,-0.00065687,-0.0001073,0.0,0 STARLINK-3583,1 51876U 22022AA  22171.58334491 -.00010730  00000-0 -65687-3 0  9993,2 51876  53.2173 345.8832 0001657  50.2749 114.2701 15.08848963  1301,6917.853,95.437,540.864,538.572,0.0
51876.0,STARLINK-3583,PAYLOAD,2022-06-20 22:00:00,15.08824188,0.0001822,53.2173,344.3872,43.2749,132.8824,0.0035686,0.00056941,0.0,0 STARLINK-3583,1 51876U 22022AA  22171.91667824  .00056941  00000-0  35686-2 0  9996,2 51876  53.2173 344.3872 0001822  43.2749 132.8824 15.08824188 18139,6917.929,95.439,541.054,538.533,0.0
51876.0,STARLINK-3583,PAYLOAD,2022-06-21 14:00:01,15.08865551,0.0001764,53.2177,341.3931,51.1769,148.1802,-0.0029924,-0.00047631,0.0,0 STARLINK-3583,1 51876U 22022AA  22172.58334491 -.00047631  00000-0 -29924-2 0  9997,2 51876  53.2177 341.3931 0001764  51.1769 148.1802 15.08865551 18237,6917.802,95.436,540.888,538.447,0.0
51876.0,STARLINK-3583,PAYLOAD,2022-06-21 22:00:00,15.08802304,0.0001856,53.2175,339.8981,43.0014,167.9679,0.003048,0.00048505,0.0,0 STARLINK-3583,1 51876U 22022AA  22172.91667824  .00048505  00000-0  30480-2 0  9991,2 51876  53.2175 339.8981 0001856  43.0014 167.9679 15.08802304  1305,6917.996,95.44,541.145,538.577,0.0
51876.0,STARLINK-3583,PAYLOAD,2022-06-22 06:00:00,15.08818838,0.000166,53.2176,338.3999,47.2717,175.27599999999995,0.0016638999999999,0.00026277,0.0,0 STARLINK-3583,1 51876U 22022AA  22173.25001157  .00026277  00000-0  16639-2 0  9992,2 51876  53.2176 338.3999 0001660  47.2717 175.2760 15.08818838 18331,6917.945,95.439,540.9580000000002,538.6619999999998,0.0
51876.0,STARLINK-3583,PAYLOAD,2022-06-22 14:00:01,15.08871615,0.0001717,53.2178,336.9076,48.6089,185.5092,-0.0073923999999999,-0.00116148,0.0,0 STARLINK-3583,1 51876U 22022AA  22173.58334491 -.00116148  00000-0 -73924-2 0  9997,2 51876  53.2178 336.9076 0001717  48.6089 185.5092 15.08871615  1306,6917.784000000002,95.436,540.837,538.461,0.0
51876.0,STARLINK-3583,PAYLOAD,2022-06-22 22:00:00,15.08839074,0.0001885,53.2174,335.409,44.2307,201.5041,0.0014791,0.0002333,0.0,0 STARLINK-3583,1 51876U 22022AA  22173.91667824  .00023330  00000-0  14791-2 0  9998,2 51876  53.2174 335.4090 0001885  44.2307 201.5041 15.08839074  1309,6917.8830000000025,95.438,541.052,538.444,0.0
51876.0,STARLINK-3583,PAYLOAD,2022-06-23 06:00:00,15.08817662,0.0001740999999999,53.2175,333.9107,50.4,206.9499,0.0019074,0.0003018,0.0,0 STARLINK-3583,1 51876U 22022AA  22174.25001157  .00030180  00000-0  19074-2 0  9997,2 51876  53.2175 333.9107 0001741  50.4000 206.9499 15.08817662 18484,6917.949000000001,95.439,541.018,538.609,0.0
51876.0,STARLINK-3583,PAYLOAD,2022-06-23 14:00:01,15.0886588,0.0001758,53.2175,332.4151,51.2304,217.6949,-0.0033721,-0.00053594,0.0,0 STARLINK-3583,1 51876U 22022AA  22174.58334491 -.00053594  00000-0 -33721-2 0  9994,2 51876  53.2175 332.4151 0001758  51.2304 217.6949 15.08865880  1308,6917.801,95.436,540.882,538.45,0.0
51876.0,STARLINK-3583,PAYLOAD,2022-06-23 22:00:00,15.08808497,0.000182,53.217,330.9197,43.9245,236.6061,0.0022501,0.00035673,0.0,0 STARLINK-3583,1 51876U 22022AA  22174.91667824  .00035673  00000-0  22501-2 0  9990,2 51876  53.2170 330.9197 0001820  43.9245 236.6061 15.08808497 18583,6917.977,95.44,541.101,538.5830000000002,0.0
51876.0,STARLINK-3583,PAYLOAD,2022-06-24 14:00:01,15.08845875,0.0001709,53.2175,327.9276,50.4576,253.2168,-0.0013226,-0.00021279,0.0,0 STARLINK-3583,1 51876U 22022AA  22175.58334491 -.00021279  00000-0 -13226-2 0  9998,2 51876  53.2175 327.9276 0001709  50.4576 253.2168 15.08845875 18683,6917.861999999999,95.437,540.91,538.545,0.0
51876.0,STARLINK-3583,PAYLOAD,2022-06-24 22:00:01,15.08825996,0.00018,53.2165,326.4305,45.2388,270.0942,0.0019828,0.00031397,0.0,0 STARLINK-3583,1 51876U 22022AA  22175.91668981  .00031397  00000-0  19828-2 0  9993,2 51876  53.2165 326.4305 0001800  45.2388 270.0942 15.08825996  1304,6917.9230000000025,95.438,541.033,538.543,0.0
51876.0,STARLINK-3583,PAYLOAD,2022-06-25 06:00:00,15.08820015,0.0001611,53.2166,324.9323,51.8149,275.0535,0.0026987,0.000429,0.0,0 STARLINK-3583,1 51876U 22022AA  22176.25001157  .00042900  00000-0  26987-2 0  9993,2 51876  53.2166 324.9323 0001611  51.8149 275.0535 15.08820015 18786,6917.941,95.439,540.9209999999998,538.692,0.0
51876.0,STARLINK-3583,PAYLOAD,2022-06-25 14:00:01,15.08866361,0.0001661,53.2167,323.437,49.2588,289.1989,-0.004077,-0.00064638,0.0,0 STARLINK-3583,1 51876U 22022AA  22176.58334491 -.00064638  00000-0 -40770-2 0  9999,2 51876  53.2167 323.4370 0001661  49.2588 289.1989 15.08866361  1309,6917.8,95.436,540.814,538.516,0.0
51876.0,STARLINK-3583,PAYLOAD,2022-06-25 22:00:00,15.08823906,0.0001719,53.2161,321.9412,42.5197,307.5406,0.0016925,0.00026739,0.0,0 STARLINK-3583,1 51876U 22022AA  22176.91667824  .00026739  00000-0  16925-2 0  9998,2 51876  53.2161 321.9412 0001719  42.5197 307.5406 15.08823906 18887,6917.93,95.439,540.984,538.605,0.0
51876.0,STARLINK-3583,PAYLOAD,2022-06-26 14:00:01,15.08848205,0.0001761,53.2164,318.9477,49.7235,323.5857,-0.0022715,-0.00036266,0.0,0 STARLINK-3583,1 51876U 22022AA  22177.58335648 -.00036266  00000-0 -22715-2 0  9990,2 51876  53.2164 318.9477 0001761  49.7235 323.5857 15.08848205 18995,6917.855,95.437,540.939,538.502,0.0
51876.0,STARLINK-3583,PAYLOAD,2022-06-26 22:00:00,15.08828036,0.0001848,53.2161,317.4518,45.2069,339.6263,0.0013489,0.00021238,0.0,0 STARLINK-3583,1 51876U 22022AA  22177.91667824  .00021238  00000-0  13489-2 0  9990,2 51876  53.2161 317.4518 0001848  45.2069 339.6263 15.08828036  1300,6917.917,95.438,541.06,538.504,0.0
51876.0,STARLINK-3583,PAYLOAD,2022-06-27 06:00:00,15.08815498,0.0001675,53.2164,315.9536,51.2198,345.2087,0.0032441,0.00051686,0.0,0 STARLINK-3583,1 51876U 22022AA  22178.25001157  .00051686  00000-0  32441-2 0  9998,2 51876  53.2164 315.9536 0001675  51.2198 345.2087 15.08815498 19094,6917.955,95.439,540.979,538.6619999999998,0.0
51876.0,STARLINK-3583,PAYLOAD,2022-06-27 14:00:01,15.08856607,0.0001791,53.2166,314.4586,48.4437,359.566,-0.0039271,-0.00062277,0.0,0 STARLINK-3583,1 51876U 22022AA  22178.58334491 -.00062277  00000-0 -39271-2 0  9992,2 51876  53.2166 314.4586 0001791  48.4437 359.5660 15.08856607 19146,6917.83,95.437,540.934,538.456,0.0
51876.0,STARLINK-3583,PAYLOAD,2022-06-27 22:00:00,15.08826389,0.0001825,53.2165,312.9625,42.5722,17.0299,0.00084993,0.00013259,0.0,0 STARLINK-3583,1 51876U 22022AA  22178.91667824  .00013259  00000-0  84993-3 0  9994,2 51876  53.2165 312.9625 0001825  42.5722  17.0299 15.08826389 19195,6917.922,95.438,541.05,538.524,0.0
51876.0,STARLINK-3583,PAYLOAD,2022-06-28 14:00:01,15.08850709,0.0001812,53.2171,309.9696,46.6673,36.091,-0.0024764,-0.00039496,0.0,0 STARLINK-3583,1 51876U 22022AA  22179.58334491 -.00039496  00000-0 -24764-2 0  9991,2 51876  53.2171 309.9696 0001812  46.6673  36.0910 15.08850709  1300,6917.848000000001,95.437,540.966,538.4590000000002,0.0
51876.0,STARLINK-3583,PAYLOAD,2022-06-28 22:00:00,15.08831361,0.0001817,53.2171,308.4734,41.4293,52.9244,-0.0011961,-0.00019269,0.0,0 STARLINK-3583,1 51876U 22022AA  22179.91667824 -.00019269  00000-0 -11961-2 0  9998,2 51876  53.2171 308.4734 0001817  41.4293  52.9244 15.08831361  1303,6917.906999999997,95.438,541.029,538.515,0.0
51876.0,STARLINK-3583,PAYLOAD,2022-06-29 14:00:01,15.08832555,0.0001792,53.2176,305.4808,44.67,72.8268,-0.0013050999999999,-0.00020995,0.0,0 STARLINK-3583,1 51876U 22022AA  22180.58334491 -.00020995  00000-0 -13051-2 0  9994,2 51876  53.2176 305.4808 0001792  44.6700  72.8268 15.08832555  1300,6917.903,95.438,541.008,538.528,0.0
51876.0,STARLINK-3583,PAYLOAD,2022-06-29 22:00:00,15.08836338,0.0001824,53.2174,303.9845,41.7558,87.3165,-0.00040575,-6.739e-05,0.0,0 STARLINK-3583,1 51876U 22022AA  22180.91667824 -.00006739  00000-0 -40575-3 0  9992,2 51876  53.2174 303.9845 0001824  41.7558  87.3165 15.08836338  1307,6917.892,95.438,541.018,538.495,0.0
